FALCON 9 R/B            
1 55684U 23022B   23057.83326218  .00008551  00000+0  15593-2 0  9990
2 55684  27.0274  49.7527 7584690 169.7921 227.1476  1.92368465   148
DRUMS TARGET-1          
1 55685U 21102M   23060.94644001  .00024049  00000+0  16972-2 0  9999
2 55685  97.5011 117.5447 0020836  67.2079 293.1498 15.04763172  1758
CHINASAT 26 (ZX 26)     
1 55686U 23023A   23054.65327030 -.00090925  00000+0 -14966-1 0  9993
2 55686  27.8958 327.5208 7292351 179.4456 119.0028  2.27947088    01
CZ-3B R/B               
1 55687U 23023B   23055.75585878  .00001253 -87120-7  10000-3 0  9990
2 55687  27.9224 326.9655 7225668 179.5385 348.6987  2.37970374    39
SOYUZ-MS 23             
1 55688U 23024A   23060.58741481  .00027985  00000+0  50444-3 0  9992
2 55688  51.6421 141.5182 0005965  42.8614  56.0898 15.49540202385100
2023-025A               
1 55690U 23025A   23060.49146711 -.00019110  00000+0 -80944-3 0  9992
2 55690  97.4741 134.3872 0010188 223.2874 274.4720 15.23077166   793
2023-025B               
1 55691U 23025B   23061.22406846 -.00000078  00000+0  00000+0 0  9996
2 55691  97.6009 135.3036 0065817 261.8669 164.9943 15.17574230   905
2023-025C               
1 55692U 23025C   23061.15791204  .00076278  00000+0  36474-2 0  9995
2 55692  97.6522 135.0578 0092386 207.5723 152.0589 15.14933128   910
2023-025D               
1 55693U 23025D   23061.16009817  .00096164  00000+0  46271-2 0  9991
2 55693  97.2426 134.8544 0094305 206.6208 153.0340 15.14483108   892
2023-025E               
1 55694U 23025E   23061.02281429 -.00000058  00000+0  00000+0 0  9993
2 55694  97.2715 134.5093 0161909 147.2089 334.9752 14.87043899   875
STARLINK A              
1 55695U 23026A   23060.91667824 -.00809615  00000+0 -83742-2 0  9993
2 55695  43.0106 271.5994 0002023 271.9823  52.3775 15.66333759  1303
STARLINK B              
1 55696U 23026B   23060.91667824 -.00792891  00000+0 -81287-2 0  9993
2 55696  43.0107 271.5990 0002378 268.7624  55.8504 15.66497379  1304
STARLINK C              
1 55697U 23026C   23060.91667824 -.00792822  00000+0 -80713-2 0  9991
2 55697  43.0108 271.5985 0002211 266.7852  58.0316 15.66670324  1306
STARLINK D              
1 55698U 23026D   23061.16667824 -.00898283  00000+0 -91931-2 0  9992
2 55698  43.0109 270.0990 0002182 266.3612  30.2470 15.66453040  1379
STARLINK E              
1 55699U 23026E   23060.91667824  .00138151  00000+0  12378-2 0  9992
2 55699  43.0108 271.5978 0005405 255.5945  69.5009 15.67119882  1301
STARLINK F              
1 55700U 23026F   23060.91667824  .00139041  00000+0  12454-2 0  9999
2 55700  43.0109 271.5978 0005426 255.3471  69.7788 15.67124114  1300
STARLINK G              
1 55701U 23026G   23060.91667824  .00132818  00000+0  11901-2 0  9991
2 55701  43.0109 271.5975 0005454 255.0922  70.1236 15.67137011  1301
STARLINK H              
1 55702U 23026H   23060.91667824  .00138416  00000+0  12387-2 0  9991
2 55702  43.0109 271.5974 0005468 254.7718  70.5039 15.67148025  1307
STARLINK J              
1 55703U 23026J   23060.91667824  .00137211  00000+0  12279-2 0  9994
2 55703  43.0110 271.5973 0005506 254.6620  70.6532 15.67152378  1308
STARLINK K              
1 55704U 23026K   23060.91667824  .00142087  00000+0  12702-2 0  9993
2 55704  43.0110 271.5973 0005521 254.3773  70.9776 15.67160862  1302
STARLINK L              
1 55705U 23026L   23061.16667824  .00121254  00000+0  10832-2 0  9997
2 55705  43.0112 270.0967 0005791 256.2929  41.3053 15.67251321  1373
STARLINK M              
1 55706U 23026M   23060.91667824  .00138162  00000+0  12351-2 0  9994
2 55706  43.0112 271.5971 0005564 253.8248  71.6449 15.67174755  1303
STARLINK N              
1 55707U 23026N   23060.91667824  .00138947  00000+0  12418-2 0  9990
2 55707  43.0114 271.5970 0005588 253.7284  71.7707 15.67178046  1305
STARLINK P              
1 55708U 23026P   23060.91667824  .00140437  00000+0  12544-2 0  9998
2 55708  43.0114 271.5970 0005607 253.4110  72.1373 15.67186688  1308
STARLINK Q              
1 55709U 23026Q   23060.91667824  .00137212  00000+0  12259-2 0  9999
2 55709  43.0115 271.5969 0005629 253.1937  72.4081 15.67191817  1305
STARLINK R              
1 55710U 23026R   23060.91667824  .00125541  00000+0  11235-2 0  9996
2 55710  43.0115 271.5967 0005642 253.0814  72.5596 15.67192533  1301
STARLINK S              
1 55711U 23026S   23061.16667824  .00127277  00000+0  11334-2 0  9993
2 55711  43.0116 270.0960 0005920 254.9426  43.0232 15.67306429  1376
STARLINK T              
1 55712U 23026T   23061.16667824  .00127455  00000+0  11347-2 0  9996
2 55712  43.0115 270.0958 0005944 254.7013  43.3133 15.67311762  1378
STARLINK U              
1 55713U 23026U   23060.91667824  .00138237  00000+0  12328-2 0  9999
2 55713  43.0114 271.5962 0005722 252.2634  73.5904 15.67232685  1305
STARLINK V              
1 55714U 23026V   23061.16667824  .00123012  00000+0  10957-2 0  9999
2 55714  43.0115 270.0956 0005973 254.2119  43.8860 15.67315474  1378
STARLINK W              
1 55715U 23026W   23061.16667824  .00121404  00000+0  10812-2 0  9993
2 55715  43.0114 270.0954 0006001 254.0672  44.0970 15.67325197  1379
SS3 DEB                 
1 55737U 23019H   23060.08618434  .01518306  00000+0  62218-2 0  9991
2 55737  37.2095 351.4439 0042986 169.8087 190.3566 15.80747129  2659
SS3 DEB                 
1 55738U 23019J   23060.84506575  .00382833  00000+0  38981-2 0  9991
2 55738  37.1903 348.3053 0040077 167.7643 192.4105 15.62034452  2726
SS3 DEB                 
1 55739U 23019K   23060.19240128  .00676780  00000+0  47091-2 0  9998
2 55739  37.1984 351.3787 0052323 163.2629 196.9880 15.69785491  2975
